[{"OBJECT_NAME":"STARLINK-1266","OBJECT_ID":"2020-019Z","EPOCH":"2026-03-09T11:09:21.933216","MEAN_MOTION":15.45424585,"ECCENTRICITY":0.00043744,"INCLINATION":53.0503,"RA_OF_ASC_NODE":134.033,"ARG_OF_PERICENTER":12.7123,"MEAN_ANOMALY":347.3992,"EPHEMERIS_TYPE":0,"CLASSIFICATION_TYPE":"U","NORAD_CAT_ID":45383,"ELEMENT_SET_NO":999,"REV_AT_EPOCH":33016,"BSTAR":0.0017997323,"MEAN_MOTION_DOT":0.00088069,"MEAN_MOTION_DDOT":0},{"OBJECT_NAME":"SITRO-AIS 39","OBJECT_ID":"2024-199AV","EPOCH":"2026-03-09T21:45:33.461856","MEAN_MOTION":15.49706693,"ECCENTRICITY":0.00072488,"INCLINATION":97.3088,"RA_OF_ASC_NODE":302.8491,"ARG_OF_PERICENTER":301.349,"MEAN_ANOMALY":58.7052,"EPHEMERIS_TYPE":0,"CLASSIFICATION_TYPE":"U","NORAD_CAT_ID":61778,"ELEMENT_SET_NO":999,"REV_AT_EPOCH":11900,"BSTAR":0.00077550481,"MEAN_MOTION_DOT":0.00043134,"MEAN_MOTION_DDOT":0}]
